[
  {
    "OBJECT_NAME": "STARLINK-30267",
    "OBJECT_ID": "2023-124A",
    "EPOCH": "2023-10-31T19:59:44.892672",
    "MEAN_MOTION": 15.18714729,
    "ECCENTRICITY": 0.0001426,
    "INCLINATION": 53.0573,
    "RA_OF_ASC_NODE": 230.9235,
    "ARG_OF_PERICENTER": 101.9366,
    "MEAN_ANOMALY": 258.1788,
    "EPHEMERIS_TYPE": 0,
    "CLASSIFICATION_TYPE": "U",
    "NORAD_CAT_ID": 57663,
    "ELEMENT_SET_NO": 999,
    "REV_AT_EPOCH": 1194,
    "BSTAR": 0.0012709,
    "MEAN_MOTION_DOT": 0.00026482,
    "MEAN_MOTION_DDOT": 0
  },
  {
    "OBJECT_NAME": "STARLINK-30302",
    "OBJECT_ID": "2023-124B",
    "EPOCH": "2023-10-31T20:05:01.729248",
    "MEAN_MOTION": 15.18722637,
    "ECCENTRICITY": 0.0001503,
    "INCLINATION": 53.0563,
    "RA_OF_ASC_NODE": 232.3579,
    "ARG_OF_PERICENTER": 95.2331,
    "MEAN_ANOMALY": 264.8835,
    "EPHEMERIS_TYPE": 0,
    "CLASSIFICATION_TYPE": "U",
    "NORAD_CAT_ID": 57664,
    "ELEMENT_SET_NO": 999,
    "REV_AT_EPOCH": 1206,
    "BSTAR": 0.0028102,
    "MEAN_MOTION_DOT": 0.00059225,
    "MEAN_MOTION_DDOT": 0
  },
  {
    "OBJECT_NAME": "STARLINK-30298",
    "OBJECT_ID": "2023-124C",
    "EPOCH": "2023-10-31T18:33:25.334496",
    "MEAN_MOTION": 15.18733122,
    "ECCENTRICITY": 0.0001252,
    "INCLINATION": 53.0549,
    "RA_OF_ASC_NODE": 232.673,
    "ARG_OF_PERICENTER": 42.265,
    "MEAN_ANOMALY": 317.8441,
    "EPHEMERIS_TYPE": 0,
    "CLASSIFICATION_TYPE": "U",
    "NORAD_CAT_ID": 57665,
    "ELEMENT_SET_NO": 999,
    "REV_AT_EPOCH": 1205,
    "BSTAR": 0.0030915,
    "MEAN_MOTION_DOT": 0.00065259,
    "MEAN_MOTION_DDOT": 0
  },
  {
    "OBJECT_NAME": "STARLINK-30301",
    "OBJECT_ID": "2023-124D",
    "EPOCH": "2023-10-31T14:00:01.000224",
    "MEAN_MOTION": 15.53583218,
    "ECCENTRICITY": 0.0001371,
    "INCLINATION": 53.0437,
    "RA_OF_ASC_NODE": 211.0614,
    "ARG_OF_PERICENTER": 133.2893,
    "MEAN_ANOMALY": 286.084,
    "EPHEMERIS_TYPE": 0,
    "CLASSIFICATION_TYPE": "U",
    "NORAD_CAT_ID": 57666,
    "ELEMENT_SET_NO": 999,
    "REV_AT_EPOCH": 1233,
    "BSTAR": -0.014865,
    "MEAN_MOTION_DOT": -0.00877847,
    "MEAN_MOTION_DDOT": 0
  },
  {
    "OBJECT_NAME": "STARLINK-30275",
    "OBJECT_ID": "2023-124E",
    "EPOCH": "2023-10-31T12:08:02.701248",
    "MEAN_MOTION": 15.18732863,
    "ECCENTRICITY": 0.00015,
    "INCLINATION": 53.0564,
    "RA_OF_ASC_NODE": 233.8487,
    "ARG_OF_PERICENTER": 108.3704,
    "MEAN_ANOMALY": 251.7454,
    "EPHEMERIS_TYPE": 0,
    "CLASSIFICATION_TYPE": "U",
    "NORAD_CAT_ID": 57667,
    "ELEMENT_SET_NO": 999,
    "REV_AT_EPOCH": 1165,
    "BSTAR": 0.00078851,
    "MEAN_MOTION_DOT": 0.00016295,
    "MEAN_MOTION_DDOT": 0
  },
  {
    "OBJECT_NAME": "STARLINK-30278",
    "OBJECT_ID": "2023-124F",
    "EPOCH": "2023-10-31T12:04:53.035968",
    "MEAN_MOTION": 15.1873279,
    "ECCENTRICITY": 0.0001405,
    "INCLINATION": 53.0565,
    "RA_OF_ASC_NODE": 233.8342,
    "ARG_OF_PERICENTER": 87.9693,
    "MEAN_ANOMALY": 272.1462,
    "EPHEMERIS_TYPE": 0,
    "CLASSIFICATION_TYPE": "U",
    "NORAD_CAT_ID": 57668,
    "ELEMENT_SET_NO": 999,
    "REV_AT_EPOCH": 1201,
    "BSTAR": 0.0012436,
    "MEAN_MOTION_DOT": 0.00025918,
    "MEAN_MOTION_DDOT": 0
  },
  {
    "OBJECT_NAME": "STARLINK-30271",
    "OBJECT_ID": "2023-124G",
    "EPOCH": "2023-10-31T19:52:23.361888",
    "MEAN_MOTION": 15.18712,
    "ECCENTRICITY": 0.0001446,
    "INCLINATION": 53.0564,
    "RA_OF_ASC_NODE": 232.3061,
    "ARG_OF_PERICENTER": 94.9885,
    "MEAN_ANOMALY": 265.1274,
    "EPHEMERIS_TYPE": 0,
    "CLASSIFICATION_TYPE": "U",
    "NORAD_CAT_ID": 57669,
    "ELEMENT_SET_NO": 999,
    "REV_AT_EPOCH": 1206,
    "BSTAR": 0.00023176,
    "MEAN_MOTION_DOT": 4.554e-5,
    "MEAN_MOTION_DDOT": 0
  },
  {
    "OBJECT_NAME": "STARLINK-30322",
    "OBJECT_ID": "2023-124H",
    "EPOCH": "2023-10-31T02:14:39.632928",
    "MEAN_MOTION": 15.1916446,
    "ECCENTRICITY": 0.0001647,
    "INCLINATION": 53.0553,
    "RA_OF_ASC_NODE": 234.8453,
    "ARG_OF_PERICENTER": 120.5452,
    "MEAN_ANOMALY": 239.5705,
    "EPHEMERIS_TYPE": 0,
    "CLASSIFICATION_TYPE": "U",
    "NORAD_CAT_ID": 57670,
    "ELEMENT_SET_NO": 999,
    "REV_AT_EPOCH": 1197,
    "BSTAR": 0.0036047,
    "MEAN_MOTION_DOT": 0.00077232,
    "MEAN_MOTION_DDOT": 0
  },
  {
    "OBJECT_NAME": "STARLINK-30296",
    "OBJECT_ID": "2023-124J",
    "EPOCH": "2023-10-31T12:31:35.914944",
    "MEAN_MOTION": 15.18735085,
    "ECCENTRICITY": 0.0001848,
    "INCLINATION": 53.0543,
    "RA_OF_ASC_NODE": 231.1088,
    "ARG_OF_PERICENTER": 74.6927,
    "MEAN_ANOMALY": 285.4272,
    "EPHEMERIS_TYPE": 0,
    "CLASSIFICATION_TYPE": "U",
    "NORAD_CAT_ID": 57671,
    "ELEMENT_SET_NO": 999,
    "REV_AT_EPOCH": 1175,
    "BSTAR": 0.00089861,
    "MEAN_MOTION_DOT": 0.00018622,
    "MEAN_MOTION_DDOT": 0
  },
  {
    "OBJECT_NAME": "STARLINK-30274",
    "OBJECT_ID": "2023-124K",
    "EPOCH": "2023-10-31T19:09:28.018944",
    "MEAN_MOTION": 15.18738239,
    "ECCENTRICITY": 0.0001505,
    "INCLINATION": 53.052,
    "RA_OF_ASC_NODE": 232.1166,
    "ARG_OF_PERICENTER": 101.2694,
    "MEAN_ANOMALY": 258.847,
    "EPHEMERIS_TYPE": 0,
    "CLASSIFICATION_TYPE": "U",
    "NORAD_CAT_ID": 57672,
    "ELEMENT_SET_NO": 999,
    "REV_AT_EPOCH": 1191,
    "BSTAR": 0.0030659,
    "MEAN_MOTION_DOT": 0.00064721,
    "MEAN_MOTION_DDOT": 0
  },
  {
    "OBJECT_NAME": "STARLINK-30316",
    "OBJECT_ID": "2023-124L",
    "EPOCH": "2023-10-31T12:49:07.382208",
    "MEAN_MOTION": 15.18738402,
    "ECCENTRICITY": 0.0001764,
    "INCLINATION": 53.0536,
    "RA_OF_ASC_NODE": 233.3133,
    "ARG_OF_PERICENTER": 91.3257,
    "MEAN_ANOMALY": 268.7939,
    "EPHEMERIS_TYPE": 0,
    "CLASSIFICATION_TYPE": "U",
    "NORAD_CAT_ID": 57673,
    "ELEMENT_SET_NO": 999,
    "REV_AT_EPOCH": 1172,
    "BSTAR": 0.00090029,
    "MEAN_MOTION_DOT": 0.0001866,
    "MEAN_MOTION_DDOT": 0
  },
  {
    "OBJECT_NAME": "STARLINK-30314",
    "OBJECT_ID": "2023-124M",
    "EPOCH": "2023-10-31T19:39:45.406656",
    "MEAN_MOTION": 15.18725123,
    "ECCENTRICITY": 0.0002177,
    "INCLINATION": 53.0556,
    "RA_OF_ASC_NODE": 232.2448,
    "ARG_OF_PERICENTER": 110.1678,
    "MEAN_ANOMALY": 249.9551,
    "EPHEMERIS_TYPE": 0,
    "CLASSIFICATION_TYPE": "U",
    "NORAD_CAT_ID": 57674,
    "ELEMENT_SET_NO": 999,
    "REV_AT_EPOCH": 1170,
    "BSTAR": 0.0014788,
    "MEAN_MOTION_DOT": 0.00030896,
    "MEAN_MOTION_DDOT": 0
  },
  {
    "OBJECT_NAME": "STARLINK-30317",
    "OBJECT_ID": "2023-124N",
    "EPOCH": "2023-10-31T19:42:54.930240",
    "MEAN_MOTION": 15.1873482,
    "ECCENTRICITY": 9.84e-5,
    "INCLINATION": 53.0561,
    "RA_OF_ASC_NODE": 232.2599,
    "ARG_OF_PERICENTER": 69.0505,
    "MEAN_ANOMALY": 291.0595,
    "EPHEMERIS_TYPE": 0,
    "CLASSIFICATION_TYPE": "U",
    "NORAD_CAT_ID": 57675,
    "ELEMENT_SET_NO": 999,
    "REV_AT_EPOCH": 1206,
    "BSTAR": 0.0017727,
    "MEAN_MOTION_DOT": 0.00037141,
    "MEAN_MOTION_DDOT": 0
  },
  {
    "OBJECT_NAME": "STARLINK-30313",
    "OBJECT_ID": "2023-124P",
    "EPOCH": "2023-10-31T19:05:00.873600",
    "MEAN_MOTION": 15.18720114,
    "ECCENTRICITY": 0.0001798,
    "INCLINATION": 53.0517,
    "RA_OF_ASC_NODE": 232.0974,
    "ARG_OF_PERICENTER": 86.8222,
    "MEAN_ANOMALY": 273.2978,
    "EPHEMERIS_TYPE": 0,
    "CLASSIFICATION_TYPE": "U",
    "NORAD_CAT_ID": 57676,
    "ELEMENT_SET_NO": 999,
    "REV_AT_EPOCH": 1206,
    "BSTAR": 0.00047515,
    "MEAN_MOTION_DOT": 9.68e-5,
    "MEAN_MOTION_DDOT": 0
  }
]
