STARLINK-30267          
1 57663U 23124A   23304.83315848  .00026482  00000+0  12709-2 0  9993
2 57663  53.0573 230.9235 0001426 101.9366 258.1788 15.18714729 11944
STARLINK-30302          
1 57664U 23124B   23304.83682557  .00059225  00000+0  28102-2 0  9993
2 57664  53.0563 232.3579 0001503  95.2331 264.8835 15.18722637 12062
STARLINK-30298          
1 57665U 23124C   23304.77320989  .00065259  00000+0  30915-2 0  9994
2 57665  53.0549 232.6730 0001252  42.2650 317.8441 15.18733122 12058
STARLINK-30301          
1 57666U 23124D   23304.58334491 -.00877847  00000+0 -14865-1 0  9998
2 57666  53.0437 211.0614 0001371 133.2893 286.0840 15.53583218 12338
STARLINK-30275          
1 57667U 23124E   23304.50558682  .00016295  00000+0  78851-3 0  9998
2 57667  53.0564 233.8487 0001500 108.3704 251.7454 15.18732863 11655
STARLINK-30278          
1 57668U 23124F   23304.50339162  .00025918  00000+0  12436-2 0  9997
2 57668  53.0565 233.8342 0001405  87.9693 272.1462 15.18732790 12016
STARLINK-30271          
1 57669U 23124G   23304.82804817  .00004554  00000+0  23176-3 0  9994
2 57669  53.0564 232.3061 0001446  94.9885 265.1274 15.18712000 12064
STARLINK-30322          
1 57670U 23124H   23304.09351427  .00077232  00000+0  36047-2 0  9992
2 57670  53.0553 234.8453 0001647 120.5452 239.5705 15.19164460 11970
STARLINK-30296          
1 57671U 23124J   23304.52194346  .00018622  00000+0  89861-3 0  9997
2 57671  53.0543 231.1088 0001848  74.6927 285.4272 15.18735085 11754
STARLINK-30274          
1 57672U 23124K   23304.79824096  .00064721  00000+0  30659-2 0  9990
2 57672  53.0520 232.1166 0001505 101.2694 258.8470 15.18738239 11912
STARLINK-30316          
1 57673U 23124L   23304.53411322  .00018660  00000+0  90029-3 0  9996
2 57673  53.0536 233.3133 0001764  91.3257 268.7939 15.18738402 11729
STARLINK-30314          
1 57674U 23124M   23304.81927554  .00030896  00000+0  14788-2 0  9999
2 57674  53.0556 232.2448 0002177 110.1678 249.9551 15.18725123 11700
STARLINK-30317          
1 57675U 23124N   23304.82146910  .00037141  00000+0  17727-2 0  9996
2 57675  53.0561 232.2599 0000984  69.0505 291.0595 15.18734820 12069
STARLINK-30313          
1 57676U 23124P   23304.79514900  .00009680  00000+0  47515-3 0  9997
2 57676  53.0517 232.0974 0001798  86.8222 273.2978 15.18720114 12061
